{
  "type": "FeatureCollection",
  "features": [
    {
      "type": "Feature",
      "properties": {
        "norad_id": 34316,
        "name": "COSMOS 2251 DEB",
        "group": "cosmos-2251-debris",
        "lat": 16.408569638157548,
        "lon": -42.57591443581074,
        "alt_km": 585.2454859099544,
        "timestamp": "2025-12-24T20:42:21.419515+00:00",
        "meta_object_name": "COSMOS 2251 DEB",
        "meta_object_id": "1993-036NN",
        "meta_epoch": "2025-12-24T06:08:53.987424",
        "meta_mean_motion": 14.92185919,
        "meta_eccentricity": 0.00091448,
        "meta_inclination": 74.0659,
        "meta_ra_of_asc_node": 313.8131,
        "meta_arg_of_pericenter": 34.9894,
        "meta_mean_anomaly": 325.1888,
        "meta_ephemeris_type": 0,
        "meta_classification_type": "U",
        "meta_norad_cat_id": 34316,
        "meta_element_set_no": 999,
        "meta_rev_at_epoch": 89381,
        "meta_bstar": 0.0019870475,
        "meta_mean_motion_dot": 0.00020279,
        "meta_mean_motion_ddot": 0,
        "tle_line1": "1 34316U 93036NN  25358.25618041  .00020279  00000+0  19870-2 0  9994",
        "tle_line2": "2 34316  74.0659 313.8131 0009144  34.9894 325.1888 14.92185919893818"
      },
      "geometry": {
        "type": "Point",
        "coordinates": [
          -42.57591443581074,
          16.408569638157548
        ]
      }
    },
    {
      "type": "Feature",
      "properties": {
        "norad_id": 34317,
        "name": "COSMOS 2251 DEB",
        "group": "cosmos-2251-debris",
        "lat": -9.739762820104144,
        "lon": 12.963368311001732,
        "alt_km": 777.321833173688,
        "timestamp": "2025-12-24T20:42:21.419526+00:00",
        "meta_object_name": "COSMOS 2251 DEB",
        "meta_object_id": "1993-036NP",
        "meta_epoch": "2025-12-24T03:29:11.114592",
        "meta_mean_motion": 13.65136055,
        "meta_eccentricity": 0.03369438,
        "meta_inclination": 73.9242,
        "meta_ra_of_asc_node": 16.9811,
        "meta_arg_of_pericenter": 4.0434,
        "meta_mean_anomaly": 62.0268,
        "meta_ephemeris_type": 0,
        "meta_classification_type": "U",
        "meta_norad_cat_id": 34317,
        "meta_element_set_no": 999,
        "meta_rev_at_epoch": 83775,
        "meta_bstar": 0.0006000635,
        "meta_mean_motion_dot": 6.94e-06,
        "meta_mean_motion_ddot": 0,
        "tle_line1": "1 34317U 93036NP  25358.14526753  .00000694  00000+0  60006-3 0  9998",
        "tle_line2": "2 34317  73.9242  16.9811 0336943   4.0434  62.0268 13.65136055837755"
      },
      "geometry": {
        "type": "Point",
        "coordinates": [
          12.963368311001732,
          -9.739762820104144
        ]
      }
    },
    {
      "type": "Feature",
      "properties": {
        "norad_id": 34321,
        "name": "COSMOS 2251 DEB",
        "group": "cosmos-2251-debris",
        "lat": 39.8574295998792,
        "lon": -60.2493212849009,
        "alt_km": 728.2507294481074,
        "timestamp": "2025-12-24T20:42:21.419536+00:00",
        "meta_object_name": "COSMOS 2251 DEB",
        "meta_object_id": "1993-036NT",
        "meta_epoch": "2025-12-24T02:23:24.155232",
        "meta_mean_motion": 14.50102575,
        "meta_eccentricity": 0.00160356,
        "meta_inclination": 74.0278,
        "meta_ra_of_asc_node": 135.0183,
        "meta_arg_of_pericenter": 263.9003,
        "meta_mean_anomaly": 211.9885,
        "meta_ephemeris_type": 0,
        "meta_classification_type": "U",
        "meta_norad_cat_id": 34321,
        "meta_element_set_no": 999,
        "meta_rev_at_epoch": 88651,
        "meta_bstar": 0.00056133502,
        "meta_mean_motion_dot": 2.155e-05,
        "meta_mean_motion_ddot": 0,
        "tle_line1": "1 34321U 93036NT  25358.09958513  .00002155  00000+0  56134-3 0  9991",
        "tle_line2": "2 34321  74.0278 135.0183 0016035 263.9003 211.9885 14.50102575886514"
      },
      "geometry": {
        "type": "Point",
        "coordinates": [
          -60.2493212849009,
          39.8574295998792
        ]
      }
    },
    {
      "type": "Feature",
      "properties": {
        "norad_id": 34323,
        "name": "COSMOS 2251 DEB",
        "group": "cosmos-2251-debris",
        "lat": 34.78403932687945,
        "lon": -92.21385852483995,
        "alt_km": 602.8873367123315,
        "timestamp": "2025-12-24T20:42:21.419546+00:00",
        "meta_object_name": "COSMOS 2251 DEB",
        "meta_object_id": "1993-036NV",
        "meta_epoch": "2025-12-24T01:19:33.547296",
        "meta_mean_motion": 14.74760101,
        "meta_eccentricity": 0.00574879,
        "meta_inclination": 73.9538,
        "meta_ra_of_asc_node": 100.9029,
        "meta_arg_of_pericenter": 142.0885,
        "meta_mean_anomaly": 35.9909,
        "meta_ephemeris_type": 0,
        "meta_classification_type": "U",
        "meta_norad_cat_id": 34323,
        "meta_element_set_no": 999,
        "meta_rev_at_epoch": 88606,
        "meta_bstar": 0.0021858052,
        "meta_mean_motion_dot": 0.00015019,
        "meta_mean_motion_ddot": 0,
        "tle_line1": "1 34323U 93036NV  25358.05524939  .00015019  00000+0  21858-2 0  9997",
        "tle_line2": "2 34323  73.9538 100.9029 0057487 142.0885  35.9909 14.74760101886066"
      },
      "geometry": {
        "type": "Point",
        "coordinates": [
          -92.21385852483995,
          34.78403932687945
        ]
      }
    },
    {
      "type": "Feature",
      "properties": {
        "norad_id": 34325,
        "name": "COSMOS 2251 DEB",
        "group": "cosmos-2251-debris",
        "lat": -1.6220679231886161,
        "lon": -8.084258434676292,
        "alt_km": 742.4047526069653,
        "timestamp": "2025-12-24T20:42:21.419556+00:00",
        "meta_object_name": "COSMOS 2251 DEB",
        "meta_object_id": "1993-036NX",
        "meta_epoch": "2025-12-23T22:21:01.669248",
        "meta_mean_motion": 14.04541761,
        "meta_eccentricity": 0.0191474,
        "meta_inclination": 73.8704,
        "meta_ra_of_asc_node": 173.0871,
        "meta_arg_of_pericenter": 188.3286,
        "meta_mean_anomaly": 325.3555,
        "meta_ephemeris_type": 0,
        "meta_classification_type": "U",
        "meta_norad_cat_id": 34325,
        "meta_element_set_no": 999,
        "meta_rev_at_epoch": 85672,
        "meta_bstar": 0.0019756,
        "meta_mean_motion_dot": 3.691e-05,
        "meta_mean_motion_ddot": 0,
        "tle_line1": "1 34325U 93036NX  25357.93126932  .00003691  00000+0  19756-2 0  9993",
        "tle_line2": "2 34325  73.8704 173.0871 0191474 188.3286 325.3555 14.04541761856726"
      },
      "geometry": {
        "type": "Point",
        "coordinates": [
          -8.084258434676292,
          -1.6220679231886161
        ]
      }
    },
    {
      "type": "Feature",
      "properties": {
        "norad_id": 34327,
        "name": "COSMOS 2251 DEB",
        "group": "cosmos-2251-debris",
        "lat": 73.33454569137791,
        "lon": -105.92027053788696,
        "alt_km": 608.2571133010442,
        "timestamp": "2025-12-24T20:42:21.419565+00:00",
        "meta_object_name": "COSMOS 2251 DEB",
        "meta_object_id": "1993-036NZ",
        "meta_epoch": "2025-12-23T16:57:16.638048",
        "meta_mean_motion": 14.89413751,
        "meta_eccentricity": 0.00335796,
        "meta_inclination": 73.9943,
        "meta_ra_of_asc_node": 149.9084,
        "meta_arg_of_pericenter": 324.1621,
        "meta_mean_anomaly": 52.7825,
        "meta_ephemeris_type": 0,
        "meta_classification_type": "U",
        "meta_norad_cat_id": 34327,
        "meta_element_set_no": 999,
        "meta_rev_at_epoch": 89671,
        "meta_bstar": 0.0013480628,
        "meta_mean_motion_dot": 0.00012936,
        "meta_mean_motion_ddot": 0,
        "tle_line1": "1 34327U 93036NZ  25357.70644257  .00012936  00000+0  13481-2 0  9996",
        "tle_line2": "2 34327  73.9943 149.9084 0033579 324.1621  52.7825 14.89413751896710"
      },
      "geometry": {
        "type": "Point",
        "coordinates": [
          -105.92027053788696,
          73.33454569137791
        ]
      }
    },
    {
      "type": "Feature",
      "properties": {
        "norad_id": 34340,
        "name": "COSMOS 2251 DEB",
        "group": "cosmos-2251-debris",
        "lat": 30.33973353141632,
        "lon": 98.1218534563438,
        "alt_km": 1048.219806558819,
        "timestamp": "2025-12-24T20:42:21.419575+00:00",
        "meta_object_name": "COSMOS 2251 DEB",
        "meta_object_id": "1993-036PN",
        "meta_epoch": "2025-12-24T06:39:46.759392",
        "meta_mean_motion": 13.79619418,
        "meta_eccentricity": 0.02841171,
        "meta_inclination": 74.0787,
        "meta_ra_of_asc_node": 288.7158,
        "meta_arg_of_pericenter": 33.8212,
        "meta_mean_anomaly": 86.4538,
        "meta_ephemeris_type": 0,
        "meta_classification_type": "U",
        "meta_norad_cat_id": 34340,
        "meta_element_set_no": 999,
        "meta_rev_at_epoch": 84427,
        "meta_bstar": 0.0016543958,
        "meta_mean_motion_dot": 2.289e-05,
        "meta_mean_motion_ddot": 0,
        "tle_line1": "1 34340U 93036PN  25358.27762453  .00002289  00000+0  16544-2 0  9996",
        "tle_line2": "2 34340  74.0787 288.7158 0284117  33.8212  86.4538 13.79619418844278"
      },
      "geometry": {
        "type": "Point",
        "coordinates": [
          98.1218534563438,
          30.33973353141632
        ]
      }
    }
  ]
}